METHANESAT              
1 59101U 24043D   25187.92249339  .00001346  00000+0  12680-3 0  9996
2 59101  97.8028 313.8955 0012357  84.1386 276.1242 14.95449624 73006
GOSAT-GW (IBUKI GW)     
1 64694U 25141A   25187.91621337  .00000648  00000+0  12423-3 0  9999
2 64694  98.0589 126.5031 0003937 125.5743 234.5829 14.66981442  1208
GHGSAT-C1               
1 46278U 20061G   25188.15712045  .00014284  00000+0  24533-3 0  9993
2 46278  97.2507 261.9929 0001548 179.2419 180.8836 15.51254986269689
GHGSAT-C2               
1 47509U 21006DA  25188.09019071  .00004217  00000+0  13648-3 0  9993
2 47509  97.2672 236.3767 0004945 345.3451  14.7647 15.32574961246904
GHGSAT-C3               
1 52737U 22057F   25188.06148078  .00004445  00000+0  16304-3 0  9991
2 52737  97.6149 318.3746 0005343 258.1152 101.9488 15.28507922172713
GHGSAT-C4               
1 52746U 22057Q   25188.07981097  .00004401  00000+0  16138-3 0  9995
2 52746  97.6078 317.5658 0005757 240.6807 119.3857 15.28524323172727
GHGSAT-C5               
1 52744U 22057N   25188.16157814  .00005134  00000+0  18753-3 0  9994
2 52744  97.6234 319.6508 0006388 254.4704 105.5830 15.28562729172737
GHGSAT-C6               
1 56204U 23054AC  25188.04318258  .00007370  00000+0  17430-3 0  9990
2 56204  97.3304  89.2058 0008158 205.3765 154.7083 15.42080287125088
GHGSAT-C7               
1 56209U 23054AH  25188.04601097  .00006113  00000+0  14854-3 0  9992
2 56209  97.3265  88.7886 0008401 198.5456 161.5486 15.41337270125082
GHGSAT-C8               
1 56186U 23054J   25188.08319970  .00007315  00000+0  17301-3 0  9991
2 56186  97.3274  88.7380 0004846 222.9625 137.1244 15.42104821125079
SENTINEL-5P             
1 42969U 17064A   25187.82226749  .00000017  00000+0  28826-4 0  9998
2 42969  98.7584 128.0143 0001272  93.6099 266.5223 14.19530929400564
ENMAP                   
1 52159U 22033C   25187.93182830  .00000315  00000+0  54324-4 0  9999
2 52159  97.9789 270.1405 0001400  94.6163 265.5206 14.74999332175769
PRISMA                  
1 44072U 19015A   25188.17578724  .00000710  00000+0  92448-4 0  9996
2 44072  97.8750 262.8808 0001546  91.3556 268.7835 14.83661896340899
SENTINEL-2A             
1 40697U 15028A   25188.17975631  .00000090  00000+0  51104-4 0  9998
2 40697  98.5690 262.9799 0001211  93.1761 266.9561 14.30815000524391
SENTINEL-2B             
1 42063U 17013A   25188.17258671  .00000095  00000+0  52740-4 0  9993
2 42063  98.5693 262.9143 0001176  99.5687 260.5629 14.30816904435315
SENTINEL-2C             
1 60989U 24157A   25187.78819633  .00000071  00000+0  43917-4 0  9994
2 60989  98.5682 262.6116 0001173  96.3449 263.7868 14.30815485 43593
LANDSAT 8               
1 39084U 13008A   25188.09808948  .00000250  00000+0  65496-4 0  9996
2 39084  98.2249 258.3335 0001354  90.6091 269.5262 14.57112286659466
LANDSAT 9               
1 49260U 21088A   25188.20106607  .00000302  00000+0  77215-4 0  9996
2 49260  98.2270 258.4309 0001490  92.5508 267.5861 14.57112071200753
TANAGER-1               
1 60507U 24149AR  25187.68786955  .00016214  00000+0  36070-3 0  9997
2 60507  97.4020 272.1971 0009393 251.8031 108.2194 15.43682607 49735
